NORAD_CAT_ID,OBJECT_NAME,OBJECT_TYPE,EPOCH,MEAN_MOTION,ECCENTRICITY,INCLINATION,RA_OF_ASC_NODE,ARG_OF_PERICENTER,MEAN_ANOMALY,BSTAR,MEAN_MOTION_DOT,MEAN_MOTION_DDOT,TLE_LINE0,TLE_LINE1,TLE_LINE2,SEMIMAJOR_AXIS,PERIOD,APOGEE,PERIGEE,DECAYED
51976.0,STARLINK-3663,PAYLOAD,2022-11-25 11:33:09,15.08861662,0.0002396,53.2176,27.0793,36.984,323.1317,0.00033757,5.091e-05,0.0,0 STARLINK-3663,1 51976U 22025W   22329.48135631  .00005091  00000-0  33757-3 0  9991,2 51976  53.2176  27.0793 0002396  36.9840 323.1317 15.08861662 40986,6917.814,95.436,541.337,538.0219999999998,0.0
51976.0,STARLINK-3663,PAYLOAD,2022-11-25 21:05:29,15.08845614,0.0002446,53.2176,25.2933,38.639,321.4777,0.00012974,1.777e-05,0.0,0 STARLINK-3663,1 51976U 22025W   22329.87881054  .00001777  00000-0  12974-3 0  9996,2 51976  53.2176  25.2933 0002446  38.6390 321.4777 15.08845614 39930,6917.863,95.437,541.42,538.036,0.0
51976.0,STARLINK-3663,PAYLOAD,2022-11-26 11:23:57,15.08846343,0.0002272,53.218,22.619,36.0474,324.0671,2.4087e-05,9.5e-07,0.0,0 STARLINK-3663,1 51976U 22025W   22330.47496967  .00000095  00000-0  24087-4 0  9990,2 51976  53.2180  22.6190 0002272  36.0474 324.0671 15.08846343 40027,6917.861,95.437,541.298,538.154,0.0
51976.0,STARLINK-3663,PAYLOAD,2022-11-26 20:56:15,15.08849102,0.0002283,53.2177,20.8352,36.1342,323.9804,2.1768e-06,-2.54e-06,0.0,0 STARLINK-3663,1 51976U 22025W   22330.87240594 -.00000254  00000-0  21768-5 0  9999,2 51976  53.2177  20.8352 0002283  36.1342 323.9804 15.08849102 40088,6917.853,95.437,541.297,538.138,0.0
51976.0,STARLINK-3663,PAYLOAD,2022-11-27 03:17:48,15.08845656,0.0002258,53.2176,19.6462,36.7173,323.3974,-3.7897e-05,-8.92e-06,0.0,0 STARLINK-3663,1 51976U 22025W   22331.13736754 -.00000892  00000-0 -37897-4 0  9995,2 51976  53.2176  19.6462 0002258  36.7173 323.3974 15.08845656 41235,6917.863,95.437,541.29,538.1659999999998,0.0
51976.0,STARLINK-3663,PAYLOAD,2022-11-27 09:39:21,15.08844532,0.0002311,53.2173,18.4551,38.3967,321.7189,-3.6926e-05,-8.76e-06,0.0,0 STARLINK-3663,1 51976U 22025W   22331.40232701 -.00000876  00000-0 -36926-4 0  9992,2 51976  53.2173  18.4551 0002311  38.3967 321.7189 15.08844532 40160,6917.8669999999975,95.437,541.33,538.133,0.0
51976.0,STARLINK-3663,PAYLOAD,2022-11-28 09:30:07,15.08844205,0.000239,53.2168,13.995,37.5706,322.5452,-3.6841e-05,-8.75e-06,0.0,0 STARLINK-3663,1 51976U 22025W   22332.39592244 -.00000875  00000-0 -36841-4 0  9997,2 51976  53.2168  13.9950 0002390  37.5706 322.5452 15.08844205 41425,6917.868,95.437,541.386,538.0790000000002,0.0
51976.0,STARLINK-3663,PAYLOAD,2022-11-29 02:59:22,15.08834715,0.0002415,53.2155,10.7237,37.6438,322.4723,-3.1166999999999995e-05,-7.84e-06,0.0,0 STARLINK-3663,1 51976U 22025W   22333.12456910 -.00000784  00000-0 -31167-4 0  9993,2 51976  53.2155  10.7237 0002415  37.6438 322.4723 15.08834715 41532,6917.897,95.438,541.432,538.091,0.0
51976.0,STARLINK-3663,PAYLOAD,2022-11-29 09:20:55,15.08835409,0.0002429,53.2153,9.5343,37.3545,322.7615,-1.877e-05,-5.87e-06,0.0,0 STARLINK-3663,1 51976U 22025W   22333.38952886 -.00000587  00000-0 -18770-4 0  9990,2 51976  53.2153   9.5343 0002429  37.3545 322.7615 15.08835409 40460,6917.894,95.438,541.44,538.0790000000002,0.0
51976.0,STARLINK-3663,PAYLOAD,2022-11-30 10:47:05,15.08832798,0.0002474,53.2164,4.7768,36.698,323.4181,2.1768e-05,5.8e-07,0.0,0 STARLINK-3663,1 51976U 22025W   22334.44937294  .00000058  00000-0  21768-4 0  9996,2 51976  53.2164   4.7768 0002474  36.6980 323.4181 15.08832798 40627,6917.901999999999,95.438,541.479,538.056,0.0
51976.0,STARLINK-3663,PAYLOAD,2022-11-30 18:44:02,15.08822485,0.0002476,53.2171,3.2903,33.1269,326.9878,-5.6784e-05,-1.192e-05,0.0,0 STARLINK-3663,1 51976U 22025W   22334.78058917 -.00001192  00000-0 -56784-4 0  9997,2 51976  53.2171   3.2903 0002476  33.1269 326.9878 15.08822485 41785,6917.934,95.439,541.512,538.086,0.0
51976.0,STARLINK-3663,PAYLOAD,2022-12-01 10:37:53,15.08832363,0.000251,53.2166,0.3161,29.4898,330.6235,3.4474e-05,2.6e-06,0.0,0 STARLINK-3663,1 51976U 22025W   22335.44298555  .00000260  00000-0  34474-4 0  9990,2 51976  53.2166   0.3161 0002510  29.4898 330.6235 15.08832363 40771,6917.904,95.438,541.505,538.0319999999998,0.0
51976.0,STARLINK-3663,PAYLOAD,2022-12-02 10:28:40,15.08833582,0.0002547,53.217,355.8554,32.2136,327.9011,0.00016026,2.263e-05,0.0,0 STARLINK-3663,1 51976U 22025W   22336.43658529  .00002263  00000-0  16026-3 0  9998,2 51976  53.2170 355.8554 0002547  32.2136 327.9011 15.08833582 40929,6917.9,95.438,541.5269999999998,538.003,0.0
51976.0,STARLINK-3663,PAYLOAD,2022-12-02 18:25:37,15.08827772,0.0002502,53.2168,354.3686,33.7593,326.3558,9.2065e-05,1.177e-05,0.0,0 STARLINK-3663,1 51976U 22025W   22336.76779294  .00001177  00000-0  92065-4 0  9998,2 51976  53.2168 354.3686 0002502  33.7593 326.3558 15.08827772 42082,6917.918000000002,95.438,541.514,538.052,0.0
51976.0,STARLINK-3663,PAYLOAD,2022-12-03 10:19:28,15.08838927,0.0002507,53.2166,351.3942,33.7634,326.3517,9.3023e-06,-1.4e-06,0.0,0 STARLINK-3663,1 51976U 22025W   22337.43019143 -.00000140  00000-0  93023-5 0  9999,2 51976  53.2166 351.3942 0002507  33.7634 326.3517 15.08838927 42183,6917.884,95.438,541.4830000000002,538.014,0.0
51976.0,STARLINK-3663,PAYLOAD,2022-12-03 18:16:23,15.08845624,0.0002493,53.2165,349.9072,34.2444,325.8708,5.0023e-05,5.08e-06,0.0,0 STARLINK-3663,1 51976U 22025W   22337.76138502  .00000508  00000-0  50023-4 0  9995,2 51976  53.2165 349.9072 0002493  34.2444 325.8708 15.08845624 42232,6917.863,95.437,541.453,538.004,0.0
51976.0,STARLINK-3663,PAYLOAD,2022-12-04 06:59:29,15.08836289,0.0002282,53.2162,347.5279,29.6781,330.434,3.7423e-05,3.07e-06,0.0,0 STARLINK-3663,1 51976U 22025W   22338.29130884  .00000307  00000-0  37423-4 0  9995,2 51976  53.2162 347.5279 0002282  29.6781 330.4340 15.08836289 42310,6917.892,95.438,541.335,538.178,0.0
51976.0,STARLINK-3663,PAYLOAD,2022-12-04 18:07:10,15.08842821,0.0002496,53.217,345.4466,36.9123,323.204,8.487200000000001e-05,1.063e-05,0.0,0 STARLINK-3663,1 51976U 22025W   22338.75498427  .00001063  00000-0  84872-4 0  9996,2 51976  53.2170 345.4466 0002496  36.9123 323.2040 15.08842821 42385,6917.871999999999,95.437,541.4630000000002,538.01,0.0
51976.0,STARLINK-3663,PAYLOAD,2022-12-05 10:01:01,15.08844393,0.0002491,53.2177,342.4736,35.1517,324.9639,6.2888e-05,7.13e-06,0.0,0 STARLINK-3663,1 51976U 22025W   22339.41738272  .00000713  00000-0  62888-4 0  9999,2 51976  53.2177 342.4736 0002491  35.1517 324.9639 15.08844393 41378,6917.8669999999975,95.437,541.455,538.009,0.0
51976.0,STARLINK-3663,PAYLOAD,2022-12-06 11:27:12,15.08838307,0.0002618,53.2161,337.7163,32.8512,327.2642,5.1202e-05,5.26e-06,0.0,0 STARLINK-3663,1 51976U 22025W   22340.47722333  .00000526  00000-0  51202-4 0  9998,2 51976  53.2161 337.7163 0002618  32.8512 327.2642 15.08838307 42641,6917.886,95.438,541.562,537.939,0.0
51976.0,STARLINK-3663,PAYLOAD,2022-12-06 22:34:54,15.08832465,0.0002679,53.2161,335.6347,34.2354,325.881,-7.4682e-05,-1.477e-05,0.0,0 STARLINK-3663,1 51976U 22025W   22340.94091114 -.00001477  00000-0 -74682-4 0  9991,2 51976  53.2161 335.6347 0002679  34.2354 325.8810 15.08832465 42717,6917.903,95.438,541.622,537.915,0.0
51976.0,STARLINK-3663,PAYLOAD,2022-12-07 11:17:59,15.08838121,0.0002526,53.2165,333.2558,31.4518,328.6624,-3.0682e-06,-3.37e-06,0.0,0 STARLINK-3663,1 51976U 22025W   22341.47082734 -.00000337  00000-0 -30682-5 0  9995,2 51976  53.2165 333.2558 0002526  31.4518 328.6624 15.08838121 42798,6917.886,95.438,541.499,538.004,0.0
51976.0,STARLINK-3663,PAYLOAD,2022-12-07 16:04:08,15.088428099999998,0.0001591,53.2173,332.3654,16.1775,343.9268,1.0722e-05,-1.17e-06,0.0,0 STARLINK-3663,1 51976U 22025W   22341.66954017 -.00000117  00000-0  10722-4 0  9995,2 51976  53.2173 332.3654 0001591  16.1775 343.9268 15.08842810 42828,6917.871999999999,95.437,540.837,538.636,0.0
51976.0,STARLINK-3663,PAYLOAD,2022-12-08 09:33:21,15.08861532,0.0002116,53.2171,329.0943,28.5072,331.6036,0.000148,2.069e-05,0.0,0 STARLINK-3663,1 51976U 22025W   22342.39816686  .00002069  00000-0  14800-3 0  9992,2 51976  53.2171 329.0943 0002116  28.5072 331.6036 15.08861532 41829,6917.815,95.436,541.143,538.216,0.0
51976.0,STARLINK-3663,PAYLOAD,2022-12-08 15:54:54,15.0885083,0.0001324,53.2171,327.9053,350.8648,9.232,3.1833000000000005e-05,2.19e-06,0.0,0 STARLINK-3663,1 51976U 22025W   22342.66313031  .00000219  00000-0  31833-4 0  9999,2 51976  53.2171 327.9053 0001324 350.8648   9.2320 15.08850830 41865,6917.847,95.437,540.628,538.7959999999998,0.0
51976.0,STARLINK-3663,PAYLOAD,2022-12-09 06:13:29,15.08765764,0.0002502,53.2173,325.2327,356.3975,3.6999,-0.00079737,-0.00012931,0.0,0 STARLINK-3663,1 51976U 22025W   22343.25937061 -.00012931  00000-0 -79737-3 0  9990,2 51976  53.2173 325.2327 0002502 356.3975   3.6999 15.08765764 43060,6918.107,95.442,541.703,538.241,0.0
51976.0,STARLINK-3663,PAYLOAD,2022-12-09 15:45:30,15.08987579,0.0002973,53.2175,323.4463,306.6894,53.3825,0.0014465,0.00022902,0.0,0 STARLINK-3663,1 51976U 22025W   22343.65660603  .00022902  00000-0  14465-2 0  9992,2 51976  53.2175 323.4463 0002973 306.6894  53.3825 15.08987579 43119,6917.429,95.428,541.351,537.238,0.0
51976.0,STARLINK-3663,PAYLOAD,2022-12-10 06:04:13,15.08806501,0.0001372,53.2174,320.7703,44.8938,315.2165,-0.00027594,-4.673e-05,0.0,0 STARLINK-3663,1 51976U 22025W   22344.25293909 -.00004673  00000-0 -27594-3 0  9995,2 51976  53.2174 320.7703 0001372  44.8938 315.2165 15.08806501 43210,6917.983,95.44,540.797,538.899,0.0
51976.0,STARLINK-3663,PAYLOAD,2022-12-10 07:39:33,15.08857497,0.0001321,53.2175,320.4726,47.7675,312.3429,0.00016512,2.342e-05,0.0,0 STARLINK-3663,1 51976U 22025W   22344.31913600  .00002342  00000-0  16512-3 0  9996,2 51976  53.2175 320.4726 0001321  47.7675 312.3429 15.08857497 43229,6917.8269999999975,95.436,540.606,538.778,0.0
